STARLINK-3161
1 19422C 21104Q   21326.14795600 -.00831191  00000-0 -31166-2 0  3263
2 19422  53.2176  90.8306 0024402  64.8792 234.4929 15.87463256    12
